{
  "type": "FeatureCollection",
  "features": [
    {
      "type": "Feature",
      "properties": {
        "norad_id": 67133,
        "name": "KUIPER-00144",
        "group": "last-30-days",
        "lat": -51.4289022418903,
        "lon": -27.18381071732293,
        "alt_km": 467.6938673335626,
        "timestamp": "2025-12-27T17:24:56.109656+00:00",
        "meta_object_name": "KUIPER-00144",
        "meta_object_id": "2025-301A",
        "meta_epoch": "2025-12-27T09:58:12.268992",
        "meta_mean_motion": 15.35509765,
        "meta_eccentricity": 0.0006237,
        "meta_inclination": 51.871,
        "meta_ra_of_asc_node": 54.3641,
        "meta_arg_of_pericenter": 125.1706,
        "meta_mean_anomaly": 234.9864,
        "meta_ephemeris_type": 0,
        "meta_classification_type": "U",
        "meta_norad_cat_id": 67133,
        "meta_element_set_no": 999,
        "meta_rev_at_epoch": 262,
        "meta_bstar": 0.00069698,
        "meta_mean_motion_dot": 0.00024127,
        "meta_mean_motion_ddot": 0,
        "tle_line1": "1 67133U 25301A   25361.41541978  .00024127  00000+0  69698-3 0  9993",
        "tle_line2": "2 67133  51.8710  54.3641 0006237 125.1706 234.9864 15.35509765  2629"
      },
      "geometry": {
        "type": "Point",
        "coordinates": [
          -27.18381071732293,
          -51.4289022418903
        ]
      }
    },
    {
      "type": "Feature",
      "properties": {
        "norad_id": 67134,
        "name": "KUIPER-00164",
        "group": "last-30-days",
        "lat": -39.571749471456656,
        "lon": 12.331543397888336,
        "alt_km": 463.66944256292845,
        "timestamp": "2025-12-27T17:24:56.109666+00:00",
        "meta_object_name": "KUIPER-00164",
        "meta_object_id": "2025-301B",
        "meta_epoch": "2025-12-27T09:50:38.224896",
        "meta_mean_motion": 15.36187995,
        "meta_eccentricity": 0.0003221,
        "meta_inclination": 51.873,
        "meta_ra_of_asc_node": 54.3288,
        "meta_arg_of_pericenter": 106.1855,
        "meta_mean_anomaly": 253.9486,
        "meta_ephemeris_type": 0,
        "meta_classification_type": "U",
        "meta_norad_cat_id": 67134,
        "meta_element_set_no": 999,
        "meta_rev_at_epoch": 280,
        "meta_bstar": 0.00047384,
        "meta_mean_motion_dot": 0.0001662,
        "meta_mean_motion_ddot": 0,
        "tle_line1": "1 67134U 25301B   25361.41016464  .00016620  00000+0  47384-3 0  9998",
        "tle_line2": "2 67134  51.8730  54.3288 0003221 106.1855 253.9486 15.36187995  2802"
      },
      "geometry": {
        "type": "Point",
        "coordinates": [
          12.331543397888336,
          -39.571749471456656
        ]
      }
    },
    {
      "type": "Feature",
      "properties": {
        "norad_id": 67135,
        "name": "KUIPER-00175",
        "group": "last-30-days",
        "lat": -26.189323199642594,
        "lon": 30.036535761993854,
        "alt_km": 459.4951361485091,
        "timestamp": "2025-12-27T17:24:56.109676+00:00",
        "meta_object_name": "KUIPER-00175",
        "meta_object_id": "2025-301C",
        "meta_epoch": "2025-12-27T11:19:13.097568",
        "meta_mean_motion": 15.36651953,
        "meta_eccentricity": 0.0002356,
        "meta_inclination": 51.8749,
        "meta_ra_of_asc_node": 53.986,
        "meta_arg_of_pericenter": 58.0716,
        "meta_mean_anomaly": 302.05,
        "meta_ephemeris_type": 0,
        "meta_classification_type": "U",
        "meta_norad_cat_id": 67135,
        "meta_element_set_no": 999,
        "meta_rev_at_epoch": 270,
        "meta_bstar": 0.00078921,
        "meta_mean_motion_dot": 0.00028408,
        "meta_mean_motion_ddot": 0,
        "tle_line1": "1 67135U 25301C   25361.47167937  .00028408  00000+0  78921-3 0  9995",
        "tle_line2": "2 67135  51.8749  53.9860 0002356  58.0716 302.0500 15.36651953  2705"
      },
      "geometry": {
        "type": "Point",
        "coordinates": [
          30.036535761993854,
          -26.189323199642594
        ]
      }
    },
    {
      "type": "Feature",
      "properties": {
        "norad_id": 67136,
        "name": "KUIPER-00179",
        "group": "last-30-days",
        "lat": -34.90655545931958,
        "lon": 19.556933608509578,
        "alt_km": 462.45837853913963,
        "timestamp": "2025-12-27T17:24:56.109686+00:00",
        "meta_object_name": "KUIPER-00179",
        "meta_object_id": "2025-301D",
        "meta_epoch": "2025-12-27T11:22:24.502944",
        "meta_mean_motion": 15.36302591,
        "meta_eccentricity": 0.0002962,
        "meta_inclination": 51.8746,
        "meta_ra_of_asc_node": 54.0038,
        "meta_arg_of_pericenter": 89.0491,
        "meta_mean_anomaly": 271.0834,
        "meta_ephemeris_type": 0,
        "meta_classification_type": "U",
        "meta_norad_cat_id": 67136,
        "meta_element_set_no": 999,
        "meta_rev_at_epoch": 281,
        "meta_bstar": 0.00098752,
        "meta_mean_motion_dot": 0.00035275,
        "meta_mean_motion_ddot": 0,
        "tle_line1": "1 67136U 25301D   25361.47389471  .00035275  00000+0  98752-3 0  9999",
        "tle_line2": "2 67136  51.8746  54.0038 0002962  89.0491 271.0834 15.36302591  2817"
      },
      "geometry": {
        "type": "Point",
        "coordinates": [
          19.556933608509578,
          -34.90655545931958
        ]
      }
    },
    {
      "type": "Feature",
      "properties": {
        "norad_id": 67137,
        "name": "KUIPER-00181",
        "group": "last-30-days",
        "lat": -39.540843318855195,
        "lon": -86.61269505520094,
        "alt_km": 466.01721621627985,
        "timestamp": "2025-12-27T17:24:56.109696+00:00",
        "meta_object_name": "KUIPER-00181",
        "meta_object_id": "2025-301E",
        "meta_epoch": "2025-12-27T10:08:55.434048",
        "meta_mean_motion": 15.34493384,
        "meta_eccentricity": 0.0010131,
        "meta_inclination": 51.8655,
        "meta_ra_of_asc_node": 54.4126,
        "meta_arg_of_pericenter": 147.6488,
        "meta_mean_anomaly": 212.512,
        "meta_ephemeris_type": 0,
        "meta_classification_type": "U",
        "meta_norad_cat_id": 67137,
        "meta_element_set_no": 999,
        "meta_rev_at_epoch": 278,
        "meta_bstar": 0.00081017,
        "meta_mean_motion_dot": 0.0002724,
        "meta_mean_motion_ddot": 0,
        "tle_line1": "1 67137U 25301E   25361.42286382  .00027240  00000+0  81017-3 0  9991",
        "tle_line2": "2 67137  51.8655  54.4126 0010131 147.6488 212.5120 15.34493384  2786"
      },
      "geometry": {
        "type": "Point",
        "coordinates": [
          -86.61269505520094,
          -39.540843318855195
        ]
      }
    },
    {
      "type": "Feature",
      "properties": {
        "norad_id": 67138,
        "name": "KUIPER-00183",
        "group": "last-30-days",
        "lat": -30.529165905852217,
        "lon": -99.41474561623362,
        "alt_km": 464.10327396699086,
        "timestamp": "2025-12-27T17:24:56.109705+00:00",
        "meta_object_name": "KUIPER-00183",
        "meta_object_id": "2025-301F",
        "meta_epoch": "2025-12-27T10:12:25.913088",
        "meta_mean_motion": 15.34156371,
        "meta_eccentricity": 0.0011206,
        "meta_inclination": 51.8621,
        "meta_ra_of_asc_node": 54.427,
        "meta_arg_of_pericenter": 152.176,
        "meta_mean_anomaly": 207.9826,
        "meta_ephemeris_type": 0,
        "meta_classification_type": "U",
        "meta_norad_cat_id": 67138,
        "meta_element_set_no": 999,
        "meta_rev_at_epoch": 279,
        "meta_bstar": 0.00071009,
        "meta_mean_motion_dot": 0.00023568,
        "meta_mean_motion_ddot": 0,
        "tle_line1": "1 67138U 25301F   25361.42529992  .00023568  00000+0  71009-3 0  9998",
        "tle_line2": "2 67138  51.8621  54.4270 0011206 152.1760 207.9826 15.34156371  2792"
      },
      "geometry": {
        "type": "Point",
        "coordinates": [
          -99.41474561623362,
          -30.529165905852217
        ]
      }
    },
    {
      "type": "Feature",
      "properties": {
        "norad_id": 67139,
        "name": "KUIPER-00184",
        "group": "last-30-days",
        "lat": -41.90288039316782,
        "lon": -82.2237758074318,
        "alt_km": 466.92243150930335,
        "timestamp": "2025-12-27T17:24:56.109721+00:00",
        "meta_object_name": "KUIPER-00184",
        "meta_object_id": "2025-301G",
        "meta_epoch": "2025-12-27T10:07:49.884960",
        "meta_mean_motion": 15.34410762,
        "meta_eccentricity": 0.0009095,
        "meta_inclination": 51.8639,
        "meta_ra_of_asc_node": 54.4076,
        "meta_arg_of_pericenter": 146.9693,
        "meta_mean_anomaly": 213.1862,
        "meta_ephemeris_type": 0,
        "meta_classification_type": "U",
        "meta_norad_cat_id": 67139,
        "meta_element_set_no": 999,
        "meta_rev_at_epoch": 290,
        "meta_bstar": 0.0011117,
        "meta_mean_motion_dot": 0.00037461,
        "meta_mean_motion_ddot": 0,
        "tle_line1": "1 67139U 25301G   25361.42210515  .00037461  00000+0  11117-2 0  9997",
        "tle_line2": "2 67139  51.8639  54.4076 0009095 146.9693 213.1862 15.34410762  2904"
      },
      "geometry": {
        "type": "Point",
        "coordinates": [
          -82.2237758074318,
          -41.90288039316782
        ]
      }
    }
  ]
}